P/2007 Q2 (Gilmore),e,10.2112,172.2455,162.9061,5.635725,0.0736681,0.66983790,293.5820,06/10.0/2018,2000,g 16.0,4.0
# From MPC 78183
C/2007 Q3 (Siding Spring),h,10/06.9849/2009,65.5956,149.3902,2.2909,1.000619,2.269368,2000,4.5,4.0
# From MPC 75514
P/2007 R1 (Larson),e,7.8132,181.2747,175.0085,6.046601,0.0662883,0.28541499,263.6692,06/10.0/2018,2000,g  8.0,4.0
# From MPC 75708
P/2007 R2 (Gibbs),e,1.2281,11.8153,352.3684,3.564172,0.1464759,0.54521044,238.6700,06/10.0/2018,2000,g 17.0,4.0
# From MPC 75708
P/2007 R4 (Garradd),e,20.2224,87.2592,283.0366,5.886542,0.0690103,0.66958291,271.6979,06/10.0/2018,2000,g 14.5,4.0
# From MPC 73462
P/2007 S1 (Zhao),e,5.9657,141.4852,245.9695,3.804255,0.1328311,0.34146076,149.8853,06/10.0/2018,2000,g 13.0,4.0
# From MPC 82314
C/2007 S2 (Lemmon),e,16.8500,296.0814,210.6853,12.56451,0.0221302,0.55575175,78.7745,06/10.0/2018,2000,g  6.5,4.0
# From MPC 62270
C/2007 T1 (McNaught),e,117.8338,111.6264,233.9146,2048,0.0000106,0.99952227,0.0000,12/08.5791/2007,2000,g 10.5,4.0
# From MPC 61994
P/2007 T2 (Kowalski),e,9.7335,3.3992,359.6445,3.048624,0.1851605,0.78476310,351.9526,06/10.0/2018,2000,g 18.5,4.0
# From MPC 62879
P/2007 T4 (Gibbs),e,23.8608,37.0566,42.4595,5.246501,0.0820162,0.61792662,326.4781,06/10.0/2018,2000,g 13.0,4.0
# From MPC 65935
C/2007 T5 (Gibbs),e,45.5221,109.8059,34.5901,46.79477,0.0030790,0.91298127,11.3011,06/10.0/2018,2000,g  8.0,4.0
# From MPC 66921
C/2007 U1 (LINEAR),h,08/09.3521/2008,157.7289,50.4686,1.2591,1.000426,3.311597,2000,9.0,4.0
# From MPC 75708
P/2007 V1 (Larson),e,10.7591,7.9367,51.6212,4.977349,0.0887579,0.46224578,340.8203,06/10.0/2018,2000,g 12.0,4.0
# From MPC 75708
P/2007 VQ11 (Catalina),e,12.3246,163.8211,277.7732,5.416715,0.0781808,0.50267704,294.9956,06/10.0/2018,2000,g 12.0,4.0
# From MPC 81468
C/2007 VO53 (Spacewatch),h,04/23.4421/2010,86.8540,59.6975,75.1490,1.000349,4.857421,2000,7.0,4.0
# From MPC 63599
C/2007 W1 (Boattini),e,9.8989,334.4752,306.3282,1231,0.0000228,0.99932327,0.0000,06/25.9244/2008,2000,g  9.5,4.0
# From MPC 63376
C/2007 W3 (LINEAR),e,78.6179,72.6981,112.5928,3929,0.0000040,0.99954896,0.0000,06/02.9665/2008,2000,g 12.0,4.0
# From MPC 62271
C/2007 Y1 (LINEAR),e,110.0895,133.1241,357.2915,18949,0.0000004,0.99982266,0.0000,03/19.5066/2008,2000,g 10.5,4.0
# From MPC 62271
C/2007 Y2 (McNaught),e,98.4075,303.3847,257.6963,980.4183,0.0000321,0.99571671,0.0000,04/11.4854/2008,2000,g  9.0,4.0
# From MPC 65935
C/2008 A1 (McNaught),e,82.8840,277.6833,348.3146,3281,0.0000052,0.99967546,0.0000,09/28.2809/2008,2000,g  6.5,4.0
# From MPC 62582
C/2008 C1 (Chen-Gao),e,61.6466,307.8025,181.0500,7553,0.0000015,0.99983124,0.0000,04/16.7525/2008,2000,g 10.0,4.0
# From MPC 75708
P/2008 CL94 (Lemmon),e,8.3540,33.3529,81.1909,6.152977,0.0645767,0.12020240,282.0104,06/10.0/2018,2000,g  8.0,4.0
# From MPC 64113
C/2008 E1 (Catalina),e,34.8237,188.8248,270.7361,10.81393,0.0277159,0.54896735,99.6196,06/10.0/2018,2000,g  7.0,4.0
# From MPC 68392
C/2008 E3 (Garradd),e,105.2213,105.6628,218.0181,1213,0.0000233,0.99543830,0.0000,07/29.1734/2008,2000,g  6.0,4.0
# From MPC 88324
C/2008 FK75 (Lemmon-Siding Spring),h,10/01.1437/2010,61.3031,218.2830,80.3485,1.000804,4.498291,2000,5.0,4.0
# From MPC 82314
C/2008 G1 (Gibbs),e,73.0764,215.9251,63.6651,288.6958,0.0002009,0.98620579,0.0000,01/13.8042/2009,2000,g  9.5,4.0
# From MPC 63137
C/2008 H1 (LINEAR),e,75.3691,34.4219,96.1304,50.68561,0.0027313,0.94528012,10.2190,06/10.0/2018,2000,g 10.5,4.0
# From MPC 65054
C/2008 J1 (Boattini),e,61.9730,273.6422,68.0011,156.5860,0.0005030,0.98898620,0.0000,07/10.4992/2008,2000,g 10.0,4.0
# From MPC 63376
C/2008 J5 (Garradd),e,93.3482,286.8597,313.0610,68.14147,0.0017522,0.97144977,0.0000,04/01.1809/2008,2000,g 12.0,4.0
# From MPC 82314
C/2008 J6 (Hill),h,04/10.1844/2008,45.1320,298.1441,10.5246,1.000814,1.987198,2000,10.5,4.0
# From MPC 75709
P/2008 L2 (Hill),e,25.8384,218.0067,141.2468,6.025196,0.0666419,0.61201617,240.1240,06/10.0/2018,2000,g 12.5,4.0
# From MPC 68902
C/2008 N1 (Holmes),e,115.4329,357.4194,100.8644,855.2537,0.0000394,0.99672366,0.0000,09/21.0844/2009,2000,g  9.0,4.0
# From MPC 75709
P/2008 O2 (McNaught),e,9.5120,325.8454,26.9459,4.496812,0.1033587,0.15158248,346.3653,06/10.0/2018,2000,g  9.0,4.0
# From MPC 64114
P/2008 O3 (Boattini),e,32.1847,47.6415,341.1233,8.232092,0.0417291,0.69349501,153.1706,06/10.0/2018,2000,g 13.0,4.0
# From MPC103843
C/2008 P1 (Garradd),e,64.2973,357.7617,11.6851,2660,0.0000072,0.99853922,0.0000,07/19.8723/2009,2000,g  7.0,4.0
# From MPC 65935
C/2008 Q1 (Maticic),e,118.5325,9.1800,104.4442,548.7149,0.0000767,0.99457899,0.0000,12/25.0177/2008,2000,g 10.0,4.0
# From MPC 80896
C/2008 Q3 (Garradd),e,140.8146,219.4867,340.7271,1523,0.0000166,0.99880808,0.0000,06/19.5262/2009,2000,g 10.0,4.0
# From MPC 75709
P/2008 QP20 (LINEAR-Hill),e,7.5274,323.0555,75.2035,3.529546,0.1486366,0.49892965,167.0476,06/10.0/2018,2000,g 15.5,4.0
# From MPC 64115
C/2008 R3 (LINEAR),e,43.3067,270.8055,83.9906,18.25656,0.0126350,0.89529804,44.1033,06/10.0/2018,2000,g 13.0,4.0
# From MPC 95207
C/2008 S3 (Boattini),h,06/06.8807/2011,162.6911,55.0840,40.0358,1.001453,8.000855,2000,4.0,4.0
# From MPC 66921
C/2008 T2 (Cardinal),h,06/14.9796/2009,56.1317,309.6117,215.9605,1.000215,1.205250,2000,6.0,4.0
# From MPC 66204
P/2008 WZ96 (LINEAR),e,7.2664,56.7737,342.3775,3.449643,0.1538306,0.48784261,181.6586,06/10.0/2018,2000,g 13.5,4.0
# From MPC 65057
C/2008 X3 (LINEAR),e,66.4439,337.6809,140.9911,43.66093,0.0034164,0.95594634,12.0669,06/10.0/2018,2000,g 13.0,4.0
# From MPC 65935
P/2008 Y1 (Boattini),e,8.9182,259.3346,162.7997,4.803928,0.0936072,0.73597260,317.1623,06/10.0/2018,2000,g 15.0,4.0
# From MPC 75710
P/2008 Y3 (McNaught),e,38.7659,262.7913,238.4299,8.039222,0.0432397,0.44697399,148.6838,06/10.0/2018,2000,g  8.5,4.0
# From MPC 88693
P/2008 Y12 (SOHO),e,23.5887,309.8356,144.3344,3.077226,0.1825849,0.97798939,0.0000,10/09.8083/2019,2000,g  9.0,4.0
# From MPC 75710
P/2009 B1 (Boattini),e,22.2222,297.0840,129.0791,6.729256,0.0564616,0.63449087,193.3108,06/10.0/2018,2000,g 13.0,4.0
# From MPC 82315
C/2009 B2 (LINEAR),e,156.9412,18.7235,192.5609,40.81727,0.0037795,0.94243552,12.7869,06/10.0/2018,2000,g 12.5,4.0
# From MPC 72850
C/2009 E1 (Itagaki),e,127.1614,105.7078,48.6634,40.13474,0.0038764,0.98528762,0.0000,04/08.9755/2009,2000,g 11.5,4.0
# From MPC 82315
C/2009 F1 (Larson),e,171.3932,357.9519,219.7810,97.05239,0.0010308,0.98102001,0.0000,06/27.4760/2009,2000,g 15.0,4.0
# From MPC 80256
C/2009 F2 (McNaught),e,59.3352,213.9106,336.5341,364.7409,0.0001415,0.98383696,0.0000,11/13.7604/2009,2000,g  6.0,4.0
# From MPC 95208
C/2009 F4 (McNaught),e,79.4614,53.5596,260.3718,199968,0.0000000,0.99997275,0.0000,01/02.0177/2012,2000,g  3.0,4.0
# From MPC 66204
C/2009 F5 (McNaught),e,84.9397,218.7752,297.3920,78.66907,0.0014125,0.97133740,0.0000,11/02.1700/2008,2000,g 10.0,4.0
# From MPC 72850
C/2009 F6 (Yi-SWAN),e,85.6542,279.0203,129.9194,493.1227,0.0000900,0.99739151,0.0000,05/05.5993/2009,2000,g  6.0,4.0
# From MPC 66466
C/2009 G1 (STEREO),e,108.5315,120.5588,175.2740,389.8005,0.0001281,0.99711788,0.0000,04/13.8205/2009,2000,g  9.0,4.0
# From MPC 82315
C/2009 K2 (Catalina),e,66.8495,123.6417,147.5163,867.9876,0.0000385,0.99628545,0.0000,02/08.6893/2010,2000,g 10.0,4.0
# From MPC 66703
C/2009 K4 (Gibbs),e,34.8369,29.7991,127.7991,42.35480,0.0035756,0.96319528,11.7194,06/10.0/2018,2000,g 13.0,4.0
# From MPC 82315
C/2009 K5 (McNaught),e,104.2642,258.0953,66.2112,2209,0.0000095,0.99935467,0.0000,04/29.2410/2010,2000,g  7.5,4.0
# From MPC 69905
C/2009 O2 (Catalina),e,107.8185,310.4942,133.6911,260.6042,0.0002343,0.99728841,0.0000,03/23.9909/2010,2000,g 11.0,4.0
# From MPC 75710
P/2009 O3 (Hill),e,16.2177,183.8032,154.2951,7.779497,0.0454231,0.68567027,150.6271,06/10.0/2018,2000,g 12.5,4.0
# From MPC 67147
C/2009 O4 (Hill),e,95.7481,172.9965,223.6969,12322,0.0000007,0.99979173,0.0000,12/27.9350/2009,2000,g 10.0,4.0
# From MPC103843
C/2009 P1 (Garradd),e,106.2781,326.1572,90.8837,8519,0.0000013,0.99981661,0.0000,12/21.2441/2011,2000,g  4.0,4.0
# From MPC 76024
C/2009 P2 (Boattini),e,163.4106,60.4924,76.1149,21231,0.0000003,0.99969249,0.0000,02/08.4418/2010,2000,g  6.0,4.0
# From MPC 75710
P/2009 Q1 (Hill),e,14.4982,173.9454,157.1387,5.518553,0.0760267,0.49374250,250.0938,06/10.0/2018,2000,g 11.5,4.0
# From MPC 72850
P/2009 Q4 (Boattini),e,10.9900,127.5023,320.0844,3.132090,0.1778086,0.58095297,194.2822,06/10.0/2018,2000,g 15.5,4.0
# From MPC 68902
P/2009 Q5 (McNaught),e,40.8898,160.1945,209.0989,7.446609,0.0485027,0.60696880,155.5471,06/10.0/2018,2000,g 10.0,4.0
# From MPC 82315
C/2009 R1 (McNaught),h,07/01.6055/2010,76.9031,322.8000,130.8891,1.000390,0.415321,2000,8.0,4.0
# From MPC 87062
C/2009 S3 (Lemmon),e,60.4569,225.1768,129.6702,6054,0.0000021,0.99893289,0.0000,12/11.3181/2011,2000,g  6.5,4.0
# From MPC 78184
P/2009 SK280 (Spacewatch-Hill),e,16.7999,36.4132,327.9442,4.778809,0.0943462,0.11921649,312.7492,06/10.0/2018,2000,g 11.0,4.0
# From MPC 76567
C/2009 T1 (McNaught),e,90.0492,54.4727,282.5826,1122,0.0000262,0.99445565,0.0000,10/09.1956/2009,2000,g  6.5,4.0
# From MPC 75711
P/2009 T2 (La Sagra),e,27.4935,215.7141,216.5831,7.728716,0.0458715,0.76475817,141.2767,06/10.0/2018,2000,g 14.0,4.0
# From MPC 82315
C/2009 T3 (LINEAR),e,148.5820,60.1754,32.3586,3126,0.0000056,0.99927520,0.0000,01/11.7520/2010,2000,g 12.5,4.0
# From MPC 70812
C/2009 U3 (Hill),e,51.0539,49.0572,78.0072,177.5427,0.0004166,0.99196059,0.0000,03/17.9823/2010,2000,g 13.0,4.0
# From MPC 75711
P/2009 U4 (McNaught),e,10.0807,55.3696,259.8263,5.078260,0.0861255,0.67533610,276.6649,06/10.0/2018,2000,g 14.0,4.0
# From MPC 82315
C/2009 U5 (Grauer),h,06/22.4707/2010,25.4365,121.0674,24.2504,1.003984,6.131788,2000,7.0,4.0
# From MPC 82315
C/2009 UG89 (Lemmon),h,12/11.7406/2010,130.1677,321.0592,60.6546,1.005243,3.943689,2000,9.0,4.0
# From MPC 72851
C/2009 W2 (Boattini),e,164.5040,199.6145,121.5843,8153,0.0000013,0.99915318,0.0000,05/07.3793/2010,2000,g  7.0,4.0
# From MPC105235
